[{"OBJECT_NAME":"STARLINK-34955","OBJECT_ID":"2025-175U","EPOCH":"2026-03-09T15:03:23.248224","MEAN_MOTION":15.05647103,"ECCENTRICITY":0.0002389,"INCLINATION":97.6021,"RA_OF_ASC_NODE":302.6373,"ARG_OF_PERICENTER":84.9154,"MEAN_ANOMALY":275.2345,"EPHEMERIS_TYPE":0,"CLASSIFICATION_TYPE":"U","NORAD_CAT_ID":65192,"ELEMENT_SET_NO":999,"REV_AT_EPOCH":3260,"BSTAR":0.00073817,"MEAN_MOTION_DOT":0.00010606,"MEAN_MOTION_DDOT":0},{"OBJECT_NAME":"RAPIDEYE 3","OBJECT_ID":"2008-040D","EPOCH":"2026-03-09T19:34:21.496512","MEAN_MOTION":15.06489596,"ECCENTRICITY":0.00114187,"INCLINATION":97.3959,"RA_OF_ASC_NODE":102.9968,"ARG_OF_PERICENTER":27.1842,"MEAN_ANOMALY":332.9981,"EPHEMERIS_TYPE":0,"CLASSIFICATION_TYPE":"U","NORAD_CAT_ID":33315,"ELEMENT_SET_NO":999,"REV_AT_EPOCH":95131,"BSTAR":0.00019030529,"MEAN_MOTION_DOT":2.754e-5,"MEAN_MOTION_DDOT":0}]
